[Satellite]
VERSION=1.1
NAME=Armadillo
NICKNAME=Armadillo
TLE1=1 44352U 19036P   19311.46061807  .00009749  00000-0  15076-3 0  9995
TLE2=2 44352  28.5316  40.8660 0378514  96.8295 267.5505 14.99295304 20228
STATUS=0
